[
    {
        "Altitude(m)": 559724.7002315117,
        "Argument of Periapsis(deg)": 0.0,
        "Eccentricity": 0.0,
        "Inclination(deg)": 53.0,
        "Latitude(deg)": 52.38324067985477,
        "Longitude(deg)": -158.42046882057934,
        "Mean Anomaly(deg)": 81.8182,
        "RAAN(deg)": 225.0,
        "Satellite Name": "Starlink Shell 1 995",
        "Satellite Number": 995,
        "Semi-Major Axis(m)": 6931778.249405717,
        "Time(s)": 0
    },
    {
        "Altitude(m)": 559750.3250988106,
        "Argument of Periapsis(deg)": 0.00034857847951123687,
        "Eccentricity": 0.0,
        "Inclination(deg)": 53.0,
        "Latitude(deg)": 52.49543089998498,
        "Longitude(deg)": -157.45284683370355,
        "Mean Anomaly(deg)": 82.44503120355672,
        "RAAN(deg)": 224.99948122992254,
        "Satellite Name": "Starlink Shell 1 995",
        "Satellite Number": 995,
        "Semi-Major Axis(m)": 6931778.249405717,
        "Time(s)": 10
    },
    {
        "Altitude(m)": 559773.9705285581,
        "Argument of Periapsis(deg)": 0.0006971569590224737,
        "Eccentricity": 0.0,
        "Inclination(deg)": 53.0,
        "Latitude(deg)": 52.598978432771155,
        "Longitude(deg)": -156.4802791270216,
        "Mean Anomaly(deg)": 83.07186240711343,
        "RAAN(deg)": 224.99896245984505,
        "Satellite Name": "Starlink Shell 1 995",
        "Satellite Number": 995,
        "Semi-Major Axis(m)": 6931778.249405717,
        "Time(s)": 20
    },
    {
        "Altitude(m)": 559795.6223401742,
        "Argument of Periapsis(deg)": 0.0010457354385337105,
        "Eccentricity": 0.0,
        "Inclination(deg)": 53.0,
        "Latitude(deg)": 52.693810564732935,
        "Longitude(deg)": -155.5031251663392,
        "Mean Anomaly(deg)": 83.69869361067015,
        "RAAN(deg)": 224.99844368976758,
        "Satellite Name": "Starlink Shell 1 995",
        "Satellite Number": 995,
        "Semi-Major Axis(m)": 6931778.249405717,
        "Time(s)": 30
    },
    {
        "Altitude(m)": 559815.2675572429,
        "Argument of Periapsis(deg)": 0.0013943139180449475,
        "Eccentricity": 0.0,
        "Inclination(deg)": 53.0,
        "Latitude(deg)": 52.779859998130206,
        "Longitude(deg)": -154.52175656160514,
        "Mean Anomaly(deg)": 84.32552481422687,
        "RAAN(deg)": 224.99792491969015,
        "Satellite Name": "Starlink Shell 1 995",
        "Satellite Number": 995,
        "Semi-Major Axis(m)": 6931778.249405717,
        "Time(s)": 40
    },
    {
        "Altitude(m)": 559832.8944138583,
        "Argument of Periapsis(deg)": 0.0017428923975561844,
        "Eccentricity": 0.0,
        "Inclination(deg)": 53.0,
        "Latitude(deg)": 52.85706507763511,
        "Longitude(deg)": -153.5365572294778,
        "Mean Anomaly(deg)": 84.95235601778356,
        "RAAN(deg)": 224.99740614961263,
        "Satellite Name": "Starlink Shell 1 995",
        "Satellite Number": 995,
        "Semi-Major Axis(m)": 6931778.249405717,
        "Time(s)": 50
    },
    {
        "Altitude(m)": 559848.492360335,
        "Argument of Periapsis(deg)": 0.002091470877067421,
        "Eccentricity": 0.0,
        "Inclination(deg)": 53.0,
        "Latitude(deg)": 52.92537000148284,
        "Longitude(deg)": -152.5479219646528,
        "Mean Anomaly(deg)": 85.57918722134033,
        "RAAN(deg)": 224.99688737953514,
        "Satellite Name": "Starlink Shell 1 995",
        "Satellite Number": 995,
        "Semi-Major Axis(m)": 6931778.249405717,
        "Time(s)": 60
    },
    {
        "Altitude(m)": 559862.0520683521,
        "Argument of Periapsis(deg)": 0.0024400493565786582,
        "Eccentricity": 0.0,
        "Inclination(deg)": 53.0,
        "Latitude(deg)": 52.98472501546153,
        "Longitude(deg)": -151.55625493741658,
        "Mean Anomaly(deg)": 86.206018424897,
        "RAAN(deg)": 224.9963686094577,
        "Satellite Name": "Starlink Shell 1 995",
        "Satellite Number": 995,
        "Semi-Major Axis(m)": 6931778.249405717,
        "Time(s)": 70
    },
    {
        "Altitude(m)": 559873.5654354983,
        "Argument of Periapsis(deg)": 0.002788627836089895,
        "Eccentricity": 0.0,
        "Inclination(deg)": 53.0,
        "Latitude(deg)": 53.0350865882025,
        "Longitude(deg)": -150.5619696357918,
        "Mean Anomaly(deg)": 86.83284962845376,
        "RAAN(deg)": 224.99584983938018,
        "Satellite Name": "Starlink Shell 1 995",
        "Satellite Number": 995,
        "Semi-Major Axis(m)": 6931778.249405717,
        "Time(s)": 80
    },
    {
        "Altitude(m)": 559883.0255892103,
        "Argument of Periapsis(deg)": 0.0031372063156011316,
        "Eccentricity": 0.0,
        "Inclination(deg)": 53.0,
        "Latitude(deg)": 53.07641756634522,
        "Longitude(deg)": -149.56548723288714,
        "Mean Anomaly(deg)": 87.45968083201042,
        "RAAN(deg)": 224.99533106930275,
        "Satellite Name": "Starlink Shell 1 995",
        "Satellite Number": 995,
        "Semi-Major Axis(m)": 6931778.249405717,
        "Time(s)": 90
    },
    {
        "Altitude(m)": 559890.4268901203,
        "Argument of Periapsis(deg)": 0.0034857847951123688,
        "Eccentricity": 0.0,
        "Inclination(deg)": 53.0,
        "Latitude(deg)": 53.108687308301654,
        "Longitude(deg)": -148.56723489947444,
        "Mean Anomaly(deg)": 88.08651203556714,
        "RAAN(deg)": 224.9948122992253,
        "Satellite Name": "Starlink Shell 1 995",
        "Satellite Number": 995,
        "Semi-Major Axis(m)": 6931778.249405717,
        "Time(s)": 100
    },
    {
        "Altitude(m)": 559895.764934793,
        "Argument of Periapsis(deg)": 0.003834363274623606,
        "Eccentricity": 0.0,
        "Inclination(deg)": 53.0,
        "Latitude(deg)": 53.131871795504914,
        "Longitude(deg)": -147.56764558254045,
        "Mean Anomaly(deg)": 88.71334323912389,
        "RAAN(deg)": 224.9942935291478,
        "Satellite Name": "Starlink Shell 1 995",
        "Satellite Number": 995,
        "Semi-Major Axis(m)": 6931778.249405717,
        "Time(s)": 110
    },
    {
        "Altitude(m)": 559899.0365578742,
        "Argument of Periapsis(deg)": 0.004182941754134842,
        "Eccentricity": 0.0,
        "Inclination(deg)": 53.0,
        "Latitude(deg)": 53.145953720196616,
        "Longitude(deg)": -146.56715623256122,
        "Mean Anomaly(deg)": 89.34017444268055,
        "RAAN(deg)": 224.99377475907033,
        "Satellite Name": "Starlink Shell 1 995",
        "Satellite Number": 995,
        "Semi-Major Axis(m)": 6931778.249405717,
        "Time(s)": 120
    },
    {
        "Altitude(m)": 559900.2398336283,
        "Argument of Periapsis(deg)": 0.004531520233646079,
        "Eccentricity": 0.0,
        "Inclination(deg)": 53.0,
        "Latitude(deg)": 53.15092254900655,
        "Longitude(deg)": -145.56620600139283,
        "Mean Anomaly(deg)": 89.96700564623733,
        "RAAN(deg)": 224.99325598899287,
        "Satellite Name": "Starlink Shell 1 995",
        "Satellite Number": 995,
        "Semi-Major Axis(m)": 6931778.249405717,
        "Time(s)": 130
    },
    {
        "Altitude(m)": 559899.3740768577,
        "Argument of Periapsis(deg)": 0.0048800987131573164,
        "Eccentricity": 0.0,
        "Inclination(deg)": 53.0,
        "Latitude(deg)": 53.146774561780454,
        "Longitude(deg)": -144.56523593306383,
        "Mean Anomaly(deg)": 90.59383684979397,
        "RAAN(deg)": 224.99273721891538,
        "Satellite Name": "Starlink Shell 1 995",
        "Satellite Number": 995,
        "Semi-Major Axis(m)": 6931778.249405717,
        "Time(s)": 140
    },
    {
        "Altitude(m)": 559896.4398432565,
        "Argument of Periapsis(deg)": 0.005228677192668553,
        "Eccentricity": 0.0,
        "Inclination(deg)": 53.0,
        "Latitude(deg)": 53.13351286531583,
        "Longitude(deg)": -143.5646871314182,
        "Mean Anomaly(deg)": 91.22066805335074,
        "RAAN(deg)": 224.99221844883792,
        "Satellite Name": "Starlink Shell 1 995",
        "Satellite Number": 995,
        "Semi-Major Axis(m)": 6931778.249405717,
        "Time(s)": 150
    },
    {
        "Altitude(m)": 559891.4389291125,
        "Argument of Periapsis(deg)": 0.00557725567217979,
        "Eccentricity": 0.0,
        "Inclination(deg)": 53.0,
        "Latitude(deg)": 53.111147381889644,
        "Longitude(deg)": -142.56499892731634,
        "Mean Anomaly(deg)": 91.84749925690747,
        "RAAN(deg)": 224.99169967876043,
        "Satellite Name": "Starlink Shell 1 995",
        "Satellite Number": 995,
        "Semi-Major Axis(m)": 6931778.249405717,
        "Time(s)": 160
    },
    {
        "Altitude(m)": 559884.3743704498,
        "Argument of Periapsis(deg)": 0.0059258341516910265,
        "Eccentricity": 0.0,
        "Inclination(deg)": 53.0,
        "Latitude(deg)": 53.079694812678994,
        "Longitude(deg)": -141.56660856810302,
        "Mean Anomaly(deg)": 92.47433046046417,
        "RAAN(deg)": 224.99118090868296,
        "Satellite Name": "Starlink Shell 1 995",
        "Satellite Number": 995,
        "Semi-Major Axis(m)": 6931778.249405717,
        "Time(s)": 170
    },
    {
        "Altitude(m)": 559875.2504415301,
        "Argument of Periapsis(deg)": 0.006274412631202263,
        "Eccentricity": 0.0,
        "Inclination(deg)": 53.0,
        "Latitude(deg)": 53.03917857638661,
        "Longitude(deg)": -140.56994941331035,
        "Mean Anomaly(deg)": 93.10116166402088,
        "RAAN(deg)": 224.99066213860547,
        "Satellite Name": "Starlink Shell 1 995",
        "Satellite Number": 995,
        "Semi-Major Axis(m)": 6931778.249405717,
        "Time(s)": 180
    }
]